[{"OBJECT_NAME":"ONEWEB-0351","OBJECT_ID":"2021-083AF","EPOCH":"2025-11-01T11:00:16.890048","MEAN_MOTION":13.20769476,"ECCENTRICITY":0.00027556,"INCLINATION":87.9198,"RA_OF_ASC_NODE":319.8534,"ARG_OF_PERICENTER":98.6594,"MEAN_ANOMALY":261.4851,"EPHEMERIS_TYPE":0,"CLASSIFICATION_TYPE":"U","NORAD_CAT_ID":49215,"ELEMENT_SET_NO":999,"REV_AT_EPOCH":20671,"BSTAR":0.00027886062,"MEAN_MOTION_DOT":1.26e-6,"MEAN_MOTION_DDOT":0},{"OBJECT_NAME":"ONEWEB-0352","OBJECT_ID":"2021-083AG","EPOCH":"2025-11-01T13:24:36.058752","MEAN_MOTION":13.13467642,"ECCENTRICITY":0.00022698,"INCLINATION":87.902,"RA_OF_ASC_NODE":5.4909,"ARG_OF_PERICENTER":103.2741,"MEAN_ANOMALY":256.8642,"EPHEMERIS_TYPE":0,"CLASSIFICATION_TYPE":"U","NORAD_CAT_ID":49216,"ELEMENT_SET_NO":999,"REV_AT_EPOCH":20114,"BSTAR":0.00038382142,"MEAN_MOTION_DOT":1.53e-6,"MEAN_MOTION_DDOT":0},{"OBJECT_NAME":"ONEWEB-0354","OBJECT_ID":"2021-083AH","EPOCH":"2025-11-01T11:36:50.836608","MEAN_MOTION":13.20771091,"ECCENTRICITY":0.00019019,"INCLINATION":87.9198,"RA_OF_ASC_NODE":319.8475,"ARG_OF_PERICENTER":83.3853,"MEAN_ANOMALY":276.7496,"EPHEMERIS_TYPE":0,"CLASSIFICATION_TYPE":"U","NORAD_CAT_ID":49217,"ELEMENT_SET_NO":999,"REV_AT_EPOCH":20675,"BSTAR":5.020441e-5,"MEAN_MOTION_DOT":3.3e-7,"MEAN_MOTION_DDOT":0},{"OBJECT_NAME":"ONEWEB-0355","OBJECT_ID":"2021-083AJ","EPOCH":"2025-11-01T04:57:45.919008","MEAN_MOTION":13.13469808,"ECCENTRICITY":0.00020939,"INCLINATION":87.902,"RA_OF_ASC_NODE":5.5717,"ARG_OF_PERICENTER":96.171,"MEAN_ANOMALY":263.9658,"EPHEMERIS_TYPE":0,"CLASSIFICATION_TYPE":"U","NORAD_CAT_ID":49218,"ELEMENT_SET_NO":999,"REV_AT_EPOCH":20097,"BSTAR":-0.00055140552,"MEAN_MOTION_DOT":-1.89e-6,"MEAN_MOTION_DDOT":0},{"OBJECT_NAME":"ONEWEB-0357","OBJECT_ID":"2021-083AK","EPOCH":"2025-11-01T11:32:18.165984","MEAN_MOTION":13.20771084,"ECCENTRICITY":0.00020259,"INCLINATION":87.9195,"RA_OF_ASC_NODE":319.8453,"ARG_OF_PERICENTER":91.4711,"MEAN_ANOMALY":268.6654,"EPHEMERIS_TYPE":0,"CLASSIFICATION_TYPE":"U","NORAD_CAT_ID":49219,"ELEMENT_SET_NO":999,"REV_AT_EPOCH":20675,"BSTAR":0.00027871741,"MEAN_MOTION_DOT":1.26e-6,"MEAN_MOTION_DDOT":0},{"OBJECT_NAME":"ONEWEB-0332","OBJECT_ID":"2021-090A","EPOCH":"2025-11-01T11:22:53.191200","MEAN_MOTION":13.14503423,"ECCENTRICITY":0.00019528,"INCLINATION":87.9002,"RA_OF_ASC_NODE":335.0863,"ARG_OF_PERICENTER":102.783,"MEAN_ANOMALY":257.3519,"EPHEMERIS_TYPE":0,"CLASSIFICATION_TYPE":"U","NORAD_CAT_ID":49279,"ELEMENT_SET_NO":999,"REV_AT_EPOCH":19766,"BSTAR":0.00029795763,"MEAN_MOTION_DOT":1.23e-6,"MEAN_MOTION_DDOT":0},{"OBJECT_NAME":"ONEWEB-0347","OBJECT_ID":"2021-090B","EPOCH":"2025-11-01T11:18:38.699136","MEAN_MOTION":13.20769832,"ECCENTRICITY":0.00017791,"INCLINATION":87.919,"RA_OF_ASC_NODE":319.8599,"ARG_OF_PERICENTER":102.7975,"MEAN_ANOMALY":257.3357,"EPHEMERIS_TYPE":0,"CLASSIFICATION_TYPE":"U","NORAD_CAT_ID":49280,"ELEMENT_SET_NO":999,"REV_AT_EPOCH":20098,"BSTAR":0.00026019656,"MEAN_MOTION_DOT":1.19e-6,"MEAN_MOTION_DDOT":0},{"OBJECT_NAME":"ONEWEB-0349","OBJECT_ID":"2021-090C","EPOCH":"2025-11-01T12:04:06.703968","MEAN_MOTION":13.2077109,"ECCENTRICITY":0.00019877,"INCLINATION":87.9188,"RA_OF_ASC_NODE":319.8529,"ARG_OF_PERICENTER":93.2316,"MEAN_ANOMALY":266.9045,"EPHEMERIS_TYPE":0,"CLASSIFICATION_TYPE":"U","NORAD_CAT_ID":49281,"ELEMENT_SET_NO":999,"REV_AT_EPOCH":19977,"BSTAR":-6.6167962e-5,"MEAN_MOTION_DOT":-1.4e-7,"MEAN_MOTION_DDOT":0},{"OBJECT_NAME":"ONEWEB-0353","OBJECT_ID":"2021-090D","EPOCH":"2025-11-01T11:11:27.039552","MEAN_MOTION":13.14504131,"ECCENTRICITY":0.00019258,"INCLINATION":87.9006,"RA_OF_ASC_NODE":335.0704,"ARG_OF_PERICENTER":103.2446,"MEAN_ANOMALY":256.8898,"EPHEMERIS_TYPE":0,"CLASSIFICATION_TYPE":"U","NORAD_CAT_ID":49282,"ELEMENT_SET_NO":999,"REV_AT_EPOCH":19766,"BSTAR":0.00055647511,"MEAN_MOTION_DOT":2.19e-6,"MEAN_MOTION_DDOT":0},{"OBJECT_NAME":"ONEWEB-0356","OBJECT_ID":"2021-090E","EPOCH":"2025-11-01T12:01:50.763072","MEAN_MOTION":13.20771435,"ECCENTRICITY":9.944e-5,"INCLINATION":87.9188,"RA_OF_ASC_NODE":319.8446,"ARG_OF_PERICENTER":99.0205,"MEAN_ANOMALY":261.1041,"EPHEMERIS_TYPE":0,"CLASSIFICATION_TYPE":"U","NORAD_CAT_ID":49283,"ELEMENT_SET_NO":999,"REV_AT_EPOCH":19977,"BSTAR":-0.00017236857,"MEAN_MOTION_DOT":-5.7e-7,"MEAN_MOTION_DDOT":0},{"OBJECT_NAME":"ONEWEB-0358","OBJECT_ID":"2021-090F","EPOCH":"2025-11-01T10:55:56.423424","MEAN_MOTION":13.20771223,"ECCENTRICITY":0.00017638,"INCLINATION":87.9197,"RA_OF_ASC_NODE":319.8523,"ARG_OF_PERICENTER":90.682,"MEAN_ANOMALY":269.4516,"EPHEMERIS_TYPE":0,"CLASSIFICATION_TYPE":"U","NORAD_CAT_ID":49284,"ELEMENT_SET_NO":999,"REV_AT_EPOCH":20049,"BSTAR":0.00016425562,"MEAN_MOTION_DOT":8.0e-7,"MEAN_MOTION_DDOT":0},{"OBJECT_NAME":"ONEWEB-0359","OBJECT_ID":"2021-090G","EPOCH":"2025-11-01T10:51:22.902624","MEAN_MOTION":13.20769412,"ECCENTRICITY":0.00018913,"INCLINATION":87.9184,"RA_OF_ASC_NODE":319.8553,"ARG_OF_PERICENTER":81.2108,"MEAN_ANOMALY":278.924,"EPHEMERIS_TYPE":0,"CLASSIFICATION_TYPE":"U","NORAD_CAT_ID":49285,"ELEMENT_SET_NO":999,"REV_AT_EPOCH":20047,"BSTAR":0.00031006345,"MEAN_MOTION_DOT":1.39e-6,"MEAN_MOTION_DDOT":0},{"OBJECT_NAME":"ONEWEB-0360","OBJECT_ID":"2021-090H","EPOCH":"2025-11-01T10:37:44.491584","MEAN_MOTION":13.20768953,"ECCENTRICITY":0.00019458,"INCLINATION":87.9188,"RA_OF_ASC_NODE":319.8661,"ARG_OF_PERICENTER":89.2598,"MEAN_ANOMALY":270.8759,"EPHEMERIS_TYPE":0,"CLASSIFICATION_TYPE":"U","NORAD_CAT_ID":49286,"ELEMENT_SET_NO":999,"REV_AT_EPOCH":19978,"BSTAR":3.7160638e-5,"MEAN_MOTION_DOT":2.8e-7,"MEAN_MOTION_DDOT":0},{"OBJECT_NAME":"ONEWEB-0361","OBJECT_ID":"2021-090J","EPOCH":"2025-11-01T10:10:27.440544","MEAN_MOTION":13.20769591,"ECCENTRICITY":0.00016942,"INCLINATION":87.9188,"RA_OF_ASC_NODE":319.8655,"ARG_OF_PERICENTER":90.3501,"MEAN_ANOMALY":269.7827,"EPHEMERIS_TYPE":0,"CLASSIFICATION_TYPE":"U","NORAD_CAT_ID":49287,"ELEMENT_SET_NO":999,"REV_AT_EPOCH":20023,"BSTAR":6.4373001e-5,"MEAN_MOTION_DOT":3.9e-7,"MEAN_MOTION_DDOT":0},{"OBJECT_NAME":"ONEWEB-0362","OBJECT_ID":"2021-090K","EPOCH":"2025-11-01T13:48:19.120320","MEAN_MOTION":13.19725347,"ECCENTRICITY":0.00021647,"INCLINATION":87.923,"RA_OF_ASC_NODE":350.276,"ARG_OF_PERICENTER":96.2242,"MEAN_ANOMALY":263.9137,"EPHEMERIS_TYPE":0,"CLASSIFICATION_TYPE":"U","NORAD_CAT_ID":49288,"ELEMENT_SET_NO":999,"REV_AT_EPOCH":19689,"BSTAR":-1.7279854e-5,"MEAN_MOTION_DOT":6.0e-8,"MEAN_MOTION_DDOT":0},{"OBJECT_NAME":"ONEWEB-0363","OBJECT_ID":"2021-090L","EPOCH":"2025-11-01T10:33:11.000160","MEAN_MOTION":13.20770788,"ECCENTRICITY":0.00015085,"INCLINATION":87.9189,"RA_OF_ASC_NODE":319.8587,"ARG_OF_PERICENTER":92.7587,"MEAN_ANOMALY":267.3719,"EPHEMERIS_TYPE":0,"CLASSIFICATION_TYPE":"U","NORAD_CAT_ID":49289,"ELEMENT_SET_NO":999,"REV_AT_EPOCH":20024,"BSTAR":0.00016880159,"MEAN_MOTION_DOT":8.2e-7,"MEAN_MOTION_DDOT":0}]
