ONEWEB-0351             
1 49215U 21083AF  25305.45852882  .00000126  00000+0  27886-3 0  9994
2 49215  87.9198 319.8534 0002755  98.6594 261.4851 13.20769476206716
ONEWEB-0352             
1 49216U 21083AG  25305.55875068  .00000153  00000+0  38382-3 0  9990
2 49216  87.9020   5.4909 0002269 103.2741 256.8642 13.13467642201142
ONEWEB-0354             
1 49217U 21083AH  25305.48392172  .00000033  00000+0  50204-4 0  9998
2 49217  87.9198 319.8475 0001901  83.3853 276.7496 13.20771091206757
ONEWEB-0355             
1 49218U 21083AJ  25305.20678147 -.00000189  00000+0 -55141-3 0  9996
2 49218  87.9020   5.5717 0002093  96.1710 263.9658 13.13469808200975
ONEWEB-0357             
1 49219U 21083AK  25305.48076581  .00000126  00000+0  27872-3 0  9990
2 49219  87.9195 319.8453 0002025  91.4711 268.6654 13.20771084206751
ONEWEB-0332             
1 49279U 21090A   25305.47422675  .00000123  00000+0  29796-3 0  9996
2 49279  87.9002 335.0863 0001952 102.7830 257.3519 13.14503423197662
ONEWEB-0347             
1 49280U 21090B   25305.47128124  .00000119  00000+0  26020-3 0  9992
2 49280  87.9190 319.8599 0001779 102.7975 257.3357 13.20769832200980
ONEWEB-0349             
1 49281U 21090C   25305.50285537 -.00000014  00000+0 -66168-4 0  9993
2 49281  87.9188 319.8529 0001987  93.2316 266.9045 13.20771090199778
ONEWEB-0353             
1 49282U 21090D   25305.46628518  .00000219  00000+0  55648-3 0  9994
2 49282  87.9006 335.0704 0001925 103.2446 256.8898 13.14504131197664
ONEWEB-0356             
1 49283U 21090E   25305.50128198 -.00000057  00000+0 -17237-3 0  9993
2 49283  87.9188 319.8446 0000994  99.0205 261.1041 13.20771435199772
ONEWEB-0358             
1 49284U 21090F   25305.45551416  .00000080  00000+0  16426-3 0  9994
2 49284  87.9197 319.8523 0001763  90.6820 269.4516 13.20771223200499
ONEWEB-0359             
1 49285U 21090G   25305.45234841  .00000139  00000+0  31006-3 0  9991
2 49285  87.9184 319.8553 0001891  81.2108 278.9240 13.20769412200470
ONEWEB-0360             
1 49286U 21090H   25305.44287606  .00000028  00000+0  37161-4 0  9994
2 49286  87.9188 319.8661 0001945  89.2598 270.8759 13.20768953199782
ONEWEB-0361             
1 49287U 21090J   25305.42392871  .00000039  00000+0  64373-4 0  9991
2 49287  87.9188 319.8655 0001694  90.3501 269.7827 13.20769591200239
ONEWEB-0362             
1 49288U 21090K   25305.57522130  .00000006  00000+0 -17280-4 0  9991
2 49288  87.9230 350.2760 0002164  96.2242 263.9137 13.19725347196899
ONEWEB-0363             
1 49289U 21090L   25305.43971065  .00000082  00000+0  16880-3 0  9999
2 49289  87.9189 319.8587 0001508  92.7587 267.3719 13.20770788200245
